{"type": "FeatureCollection", "features": [ {"type": "Feature", "properties": {"norad_id": 43622, "name": "BEIDOU-3 M13 (C32)", "group": "beidou", "lat": -51.40081169088873, "lon": 12.493157333523634, "alt_km": 21516.583294934397, "timestamp": "2025-12-21T16:47:55.003676+00:00", "meta": {"OBJECT_NAME": "BEIDOU-3 M13 (C32)", "OBJECT_ID": "2018-072A", "EPOCH": "2025-12-21T06:24:05.172192", "MEAN_MOTION": 1.86231118, "ECCENTRICITY": 0.0006212, "INCLINATION": 56.4663, "RA_OF_ASC_NODE": 68.5379, "ARG_OF_PERICENTER": 298.3671, "MEAN_ANOMALY": 61.6165, "EPHEMERIS_TYPE": 0, "CLASSIFICATION_TYPE": "U", "NORAD_CAT_ID": 43622, "ELEMENT_SET_NO": 999, "REV_AT_EPOCH": 4934, "BSTAR": 0, "MEAN_MOTION_DOT": -3.6e-07, "MEAN_MOTION_DDOT": 0}, "tle": {"line1": "1 43622U 18072A   25355.26672653 -.00000036  00000+0  00000+0 0  9990", "line2": "2 43622  56.4663  68.5379 0006212 298.3671  61.6165  1.86231118 49340"}}, "geometry": {"type": "Point", "coordinates": [12.493157333523634, -51.40081169088873]}}, {"type": "Feature", "properties": {"norad_id": 43623, "name": "BEIDOU-3 M14 (C33)", "group": "beidou", "lat": 17.105609488458427, "lon": 80.29381780483698, "alt_km": 21520.10924645538, "timestamp": "2025-12-21T16:47:55.003687+00:00", "meta": {"OBJECT_NAME": "BEIDOU-3 M14 (C33)", "OBJECT_ID": "2018-072B", "EPOCH": "2025-12-20T14:17:08.133792", "MEAN_MOTION": 1.86231122, "ECCENTRICITY": 0.00035209, "INCLINATION": 56.4674, "RA_OF_ASC_NODE": 68.5539, "ARG_OF_PERICENTER": 328.1178, "MEAN_ANOMALY": 31.9036, "EPHEMERIS_TYPE": 0, "CLASSIFICATION_TYPE": "U", "NORAD_CAT_ID": 43623, "ELEMENT_SET_NO": 999, "REV_AT_EPOCH": 4932, "BSTAR": 0, "MEAN_MOTION_DOT": -4.2e-07, "MEAN_MOTION_DDOT": 0}, "tle": {"line1": "1 43623U 18072B   25354.59523303 -.00000042  00000+0  00000+0 0  9990", "line2": "2 43623  56.4674  68.5539 0003520 328.1178  31.9036  1.86231122 49324"}}, "geometry": {"type": "Point", "coordinates": [80.29381780483698, 17.105609488458427]}}, {"type": "Feature", "properties": {"norad_id": 43647, "name": "BEIDOU-3 M16 (C35)", "group": "beidou", "lat": -53.9768191972613, "lon": -135.48162558283994, "alt_km": 21539.08403685836, "timestamp": "2025-12-21T16:47:55.003698+00:00", "meta": {"OBJECT_NAME": "BEIDOU-3 M16 (C35)", "OBJECT_ID": "2018-078A", "EPOCH": "2025-12-21T06:57:26.662752", "MEAN_MOTION": 1.86232383, "ECCENTRICITY": 0.0007391, "INCLINATION": 54.254, "RA_OF_ASC_NODE": 306.2225, "ARG_OF_PERICENTER": 20.1589, "MEAN_ANOMALY": 339.8673, "EPHEMERIS_TYPE": 0, "CLASSIFICATION_TYPE": "U", "NORAD_CAT_ID": 43647, "ELEMENT_SET_NO": 999, "REV_AT_EPOCH": 4884, "BSTAR": 0, "MEAN_MOTION_DOT": -6.2e-07, "MEAN_MOTION_DDOT": 0}, "tle": {"line1": "1 43647U 18078A   25355.28989193 -.00000062  00000+0  00000+0 0  9994", "line2": "2 43647  54.2540 306.2225 0007391  20.1589 339.8673  1.86232383 48840"}}, "geometry": {"type": "Point", "coordinates": [-135.48162558283994, -53.9768191972613]}}, {"type": "Feature", "properties": {"norad_id": 43648, "name": "BEIDOU-3 M15 (C34)", "group": "beidou", "lat": -6.773793391054828, "lon": 131.08935565213548, "alt_km": 21540.04630634692, "timestamp": "2025-12-21T16:47:55.003709+00:00", "meta": {"OBJECT_NAME": "BEIDOU-3 M15 (C34)", "OBJECT_ID": "2018-078B", "EPOCH": "2025-12-21T10:03:31.555008", "MEAN_MOTION": 1.86232355, "ECCENTRICITY": 0.0004029, "INCLINATION": 54.2498, "RA_OF_ASC_NODE": 306.2184, "ARG_OF_PERICENTER": 19.9234, "MEAN_ANOMALY": 340.0899, "EPHEMERIS_TYPE": 0, "CLASSIFICATION_TYPE": "U", "NORAD_CAT_ID": 43648, "ELEMENT_SET_NO": 999, "REV_AT_EPOCH": 4886, "BSTAR": 0, "MEAN_MOTION_DOT": -6.1e-07, "MEAN_MOTION_DDOT": 0}, "tle": {"line1": "1 43648U 18078B   25355.41911522 -.00000061  00000+0  00000+0 0  9990", "line2": "2 43648  54.2498 306.2184 0004029  19.9234 340.0899  1.86232355 48860"}}, "geometry": {"type": "Point", "coordinates": [131.08935565213548, -6.773793391054828]}}, {"type": "Feature", "properties": {"norad_id": 43683, "name": "BEIDOU-3 G1 (C59)", "group": "beidou", "lat": 0.9142114201605467, "lon": 122.46752530184838, "alt_km": 35781.159737147515, "timestamp": "2025-12-21T16:47:55.003721+00:00", "meta": {"OBJECT_NAME": "BEIDOU-3 G1 (C59)", "OBJECT_ID": "2018-085A", "EPOCH": "2025-12-21T13:01:10.404192", "MEAN_MOTION": 1.00268104, "ECCENTRICITY": 0.0001551, "INCLINATION": 2.6286, "RA_OF_ASC_NODE": 102.7097, "ARG_OF_PERICENTER": 46.1942, "MEAN_ANOMALY": 276.7567, "EPHEMERIS_TYPE": 0, "CLASSIFICATION_TYPE": "U", "NORAD_CAT_ID": 43683, "ELEMENT_SET_NO": 999, "REV_AT_EPOCH": 2627, "BSTAR": 0, "MEAN_MOTION_DOT": -2.57e-06, "MEAN_MOTION_DDOT": 0}, "tle": {"line1": "1 43683U 18085A   25355.54248153 -.00000257  00000+0  00000+0 0  9991", "line2": "2 43683   2.6286 102.7097 0001551  46.1942 276.7567  1.00268104 26273"}}, "geometry": {"type": "Point", "coordinates": [122.46752530184838, 0.9142114201605467]}}, {"type": "Feature", "properties": {"norad_id": 43706, "name": "BEIDOU-3 M17 (C36)", "group": "beidou", "lat": 53.36235548192947, "lon": -95.2837008776496, "alt_km": 21533.852502155638, "timestamp": "2025-12-21T16:47:55.003732+00:00", "meta": {"OBJECT_NAME": "BEIDOU-3 M17 (C36)", "OBJECT_ID": "2018-093A", "EPOCH": "2025-12-20T12:04:20.840736", "MEAN_MOTION": 1.86228485, "ECCENTRICITY": 0.00060883, "INCLINATION": 54.1751, "RA_OF_ASC_NODE": 188.3582, "ARG_OF_PERICENTER": 307.8758, "MEAN_ANOMALY": 51.559, "EPHEMERIS_TYPE": 0, "CLASSIFICATION_TYPE": "U", "NORAD_CAT_ID": 43706, "ELEMENT_SET_NO": 999, "REV_AT_EPOCH": 4820, "BSTAR": 0, "MEAN_MOTION_DOT": 9.7e-07, "MEAN_MOTION_DDOT": 0}, "tle": {"line1": "1 43706U 18093A   25354.50301899  .00000097  00000+0  00000+0 0  9999", "line2": "2 43706  54.1751 188.3582 0006088 307.8758  51.5590  1.86228485 48203"}}, "geometry": {"type": "Point", "coordinates": [-95.2837008776496, 53.36235548192947]}}, {"type": "Feature", "properties": {"norad_id": 43707, "name": "BEIDOU-3 M18 (C37)", "group": "beidou", "lat": 4.261257138087323, "lon": 5.226959308768895, "alt_km": 21545.50170905076, "timestamp": "2025-12-21T16:47:55.003742+00:00", "meta": {"OBJECT_NAME": "BEIDOU-3 M18 (C37)", "OBJECT_ID": "2018-093B", "EPOCH": "2025-12-20T21:39:28.587744", "MEAN_MOTION": 1.86226757, "ECCENTRICITY": 0.00062168, "INCLINATION": 54.1741, "RA_OF_ASC_NODE": 188.3365, "ARG_OF_PERICENTER": 353.7926, "MEAN_ANOMALY": 6.2524, "EPHEMERIS_TYPE": 0, "CLASSIFICATION_TYPE": "U", "NORAD_CAT_ID": 43707, "ELEMENT_SET_NO": 999, "REV_AT_EPOCH": 4821, "BSTAR": 0, "MEAN_MOTION_DOT": 9.5e-07, "MEAN_MOTION_DDOT": 0}, "tle": {"line1": "1 43707U 18093B   25354.90241421  .00000095  00000+0  00000+0 0  9996", "line2": "2 43707  54.1741 188.3365 0006216 353.7926   6.2524  1.86226757 48217"}}, "geometry": {"type": "Point", "coordinates": [5.226959308768895, 4.261257138087323]}}, {"type": "Feature", "properties": {"norad_id": 44231, "name": "BEIDOU-2 G8 (C01)", "group": "beidou", "lat": 1.354637369260241, "lon": 126.98663287519733, "alt_km": 35815.69576983172, "timestamp": "2025-12-21T16:47:55.003754+00:00", "meta": {"OBJECT_NAME": "BEIDOU-2 G8 (C01)", "OBJECT_ID": "2019-027A", "EPOCH": "2025-12-19T12:14:23.449632", "MEAN_MOTION": 1.00276563, "ECCENTRICITY": 0.0008196, "INCLINATION": 1.6785, "RA_OF_ASC_NODE": 74.7229, "ARG_OF_PERICENTER": 258.5641, "MEAN_ANOMALY": 83.1013, "EPHEMERIS_TYPE": 0, "CLASSIFICATION_TYPE": "U", "NORAD_CAT_ID": 44231, "ELEMENT_SET_NO": 999, "REV_AT_EPOCH": 2427, "BSTAR": 0, "MEAN_MOTION_DOT": -2.24e-06, "MEAN_MOTION_DDOT": 0}, "tle": {"line1": "1 44231U 19027A   25353.50999363 -.00000224  00000+0  00000+0 0  9992", "line2": "2 44231   1.6785  74.7229 0008196 258.5641  83.1013  1.00276563 24270"}}, "geometry": {"type": "Point", "coordinates": [126.98663287519733, 1.354637369260241]}}, {"type": "Feature", "properties": {"norad_id": 44337, "name": "BEIDOU-3 IGSO-2 (C39)", "group": "beidou", "lat": -44.15460298595235, "lon": 117.91853469823022, "alt_km": 35819.06243999449, "timestamp": "2025-12-21T16:47:55.003766+00:00", "meta": {"OBJECT_NAME": "BEIDOU-3 IGSO-2 (C39)", "OBJECT_ID": "2019-035A", "EPOCH": "2025-12-21T08:37:55.612416", "MEAN_MOTION": 1.00268735, "ECCENTRICITY": 0.0037644, "INCLINATION": 55.2285, "RA_OF_ASC_NODE": 160.4256, "ARG_OF_PERICENTER": 202.2242, "MEAN_ANOMALY": 336.4031, "EPHEMERIS_TYPE": 0, "CLASSIFICATION_TYPE": "U", "NORAD_CAT_ID": 44337, "ELEMENT_SET_NO": 999, "REV_AT_EPOCH": 2388, "BSTAR": 0, "MEAN_MOTION_DOT": -7.2e-07, "MEAN_MOTION_DDOT": 0}, "tle": {"line1": "1 44337U 19035A   25355.35967144 -.00000072  00000+0  00000+0 0  9996", "line2": "2 44337  55.2285 160.4256 0037644 202.2242 336.4031  1.00268735 23885"}}, "geometry": {"type": "Point", "coordinates": [117.91853469823022, -44.15460298595235]}}, {"type": "Feature", "properties": {"norad_id": 44542, "name": "BEIDOU-3 M24 (C46)", "group": "beidou", "lat": 40.254783745960914, "lon": -28.65091190422355, "alt_km": 21528.63025681392, "timestamp": "2025-12-21T16:47:55.003777+00:00", "meta": {"OBJECT_NAME": "BEIDOU-3 M24 (C46)", "OBJECT_ID": "2019-061A", "EPOCH": "2025-12-20T23:21:37.865088", "MEAN_MOTION": 1.86229471, "ECCENTRICITY": 0.0009592, "INCLINATION": 54.4004, "RA_OF_ASC_NODE": 188.7381, "ARG_OF_PERICENTER": 25.7188, "MEAN_ANOMALY": 334.3821, "EPHEMERIS_TYPE": 0, "CLASSIFICATION_TYPE": "U", "NORAD_CAT_ID": 44542, "ELEMENT_SET_NO": 999, "REV_AT_EPOCH": 4247, "BSTAR": 0, "MEAN_MOTION_DOT": 9.6e-07, "MEAN_MOTION_DDOT": 0}, "tle": {"line1": "1 44542U 19061A   25354.97335492  .00000096  00000+0  00000+0 0  9990", "line2": "2 44542  54.4004 188.7381 0009592  25.7188 334.3821  1.86229471 42471"}}, "geometry": {"type": "Point", "coordinates": [-28.65091190422355, 40.254783745960914]}}]}